{
  "type": "FeatureCollection",
  "generator": "overpass-turbo",
  "copyright": "The data included in this document is from www.openstreetmap.org. The data is made available under ODbL.",
  "timestamp": "2026-04-22T09:50:45Z",
  "features": [
    {
      "type": "Feature",
      "properties": {
        "@id": "relation/13491196",
        "name": "Percorso 1",
        "network": "lwn",
        "route": "hiking",
        "type": "route"
      },
      "geometry": {
        "type": "LineString",
        "coordinates": [
          [
            9.4543743,
            41.1982374
          ],
          [
            9.4545203,
            41.1983935
          ],
          [
            9.4545945,
            41.1984815
          ],
          [
            9.4546664,
            41.1985694
          ],
          [
            9.454781,
            41.1987199
          ],
          [
            9.4548462,
            41.1987977
          ],
          [
            9.4549676,
            41.1989482
          ],
          [
            9.454999,
            41.1989702
          ],
          [
            9.4550912,
            41.1989972
          ],
          [
            9.4551631,
            41.199026
          ],
          [
            9.4551991,
            41.1990547
          ],
          [
            9.455226,
            41.1991021
          ],
          [
            9.4552732,
            41.1991511
          ],
          [
            9.4553159,
            41.1991748
          ],
          [
            9.4554598,
            41.1992019
          ],
          [
            9.4555227,
            41.1992222
          ],
          [
            9.4556261,
            41.199261
          ],
          [
            9.455934,
            41.1994149
          ],
          [
            9.4561295,
            41.1996517
          ],
          [
            9.4565992,
            41.1999172
          ],
          [
            9.4568465,
            41.2002824
          ],
          [
            9.4570195,
            41.200301
          ],
          [
            9.4572151,
            41.200252
          ],
          [
            9.4575097,
            41.2001258
          ],
          [
            9.4574963,
            41.2001979
          ],
          [
            9.4574784,
            41.2002864
          ],
          [
            9.4574607,
            41.2003821
          ],
          [
            9.4574489,
            41.2005632
          ],
          [
            9.4574963,
            41.2007592
          ],
          [
            9.4574279,
            41.2008504
          ],
          [
            9.4574292,
            41.2009849
          ],
          [
            9.4574006,
            41.2010828
          ],
          [
            9.4573344,
            41.2011661
          ],
          [
            9.4572358,
            41.2013146
          ],
          [
            9.457066,
            41.2015462
          ],
          [
            9.4570423,
            41.2017155
          ],
          [
            9.45709,
            41.2018601
          ],
          [
            9.4570846,
            41.2018662
          ],
          [
            9.4569218,
            41.2020335
          ],
          [
            9.4568024,
            41.2021823
          ],
          [
            9.4565927,
            41.2025116
          ],
          [
            9.4564363,
            41.2026914
          ],
          [
            9.45631,
            41.2030947
          ],
          [
            9.4561603,
            41.2031261
          ],
          [
            9.4558365,
            41.2032647
          ],
          [
            9.4556691,
            41.2034831
          ],
          [
            9.4555742,
            41.2037771
          ],
          [
            9.4555742,
            41.2041551
          ],
          [
            9.455563,
            41.2043188
          ],
          [
            9.4555184,
            41.2045666
          ],
          [
            9.455608,
            41.2048234
          ],
          [
            9.4557049,
            41.2050842
          ],
          [
            9.4557817,
            41.205306
          ],
          [
            9.4557434,
            41.2054013
          ],
          [
            9.4556237,
            41.2054922
          ],
          [
            9.4553145,
            41.205727
          ],
          [
            9.4553068,
            41.2060033
          ],
          [
            9.4552615,
            41.2062091
          ],
          [
            9.4550244,
            41.206312
          ],
          [
            9.4548399,
            41.2062937
          ],
          [
            9.4546779,
            41.2062777
          ],
          [
            9.4543314,
            41.2061405
          ],
          [
            9.4537388,
            41.2060101
          ],
          [
            9.4532082,
            41.2058856
          ],
          [
            9.4528747,
            41.205917
          ],
          [
            9.4525662,
            41.2062523
          ],
          [
            9.4524354,
            41.2064562
          ],
          [
            9.4523663,
            41.2066681
          ],
          [
            9.4523091,
            41.2067697
          ],
          [
            9.452171,
            41.2069664
          ],
          [
            9.45203,
            41.2072767
          ],
          [
            9.4516282,
            41.2076612
          ],
          [
            9.4515683,
            41.2078044
          ],
          [
            9.4515859,
            41.2080934
          ],
          [
            9.4515365,
            41.208226
          ],
          [
            9.4515154,
            41.208348
          ],
          [
            9.4512567,
            41.2085883
          ],
          [
            9.451179,
            41.2086907
          ],
          [
            9.4510783,
            41.2088784
          ],
          [
            9.4510219,
            41.2092178
          ],
          [
            9.4509893,
            41.2092875
          ],
          [
            9.4509341,
            41.2093149
          ],
          [
            9.4508488,
            41.2093211
          ],
          [
            9.4507624,
            41.2093443
          ],
          [
            9.4506727,
            41.2093933
          ],
          [
            9.450598,
            41.2095144
          ],
          [
            9.4504344,
            41.2097653
          ],
          [
            9.4501895,
            41.2100859
          ],
          [
            9.4501451,
            41.2103861
          ],
          [
            9.4501196,
            41.2106046
          ],
          [
            9.450042,
            41.2109838
          ],
          [
            9.4500032,
            41.2112357
          ],
          [
            9.4500476,
            41.2115877
          ],
          [
            9.4500874,
            41.2116955
          ],
          [
            9.4500931,
            41.2117498
          ],
          [
            9.4500318,
            41.211868
          ],
          [
            9.4499363,
            41.211949
          ],
          [
            9.4497711,
            41.2121228
          ],
          [
            9.4497389,
            41.2122089
          ],
          [
            9.4497681,
            41.2123084
          ],
          [
            9.4498239,
            41.2124117
          ],
          [
            9.4498511,
            41.2125297
          ],
          [
            9.4498411,
            41.2127207
          ],
          [
            9.449951,
            41.2130268
          ],
          [
            9.4499686,
            41.2134822
          ],
          [
            9.4499557,
            41.2137025
          ],
          [
            9.4499539,
            41.2141287
          ],
          [
            9.4500683,
            41.2145645
          ],
          [
            9.4500923,
            41.2148664
          ]
        ]
      },
      "id": "relation/13491196"
    },
    {
      "type": "Feature",
      "properties": {
        "@id": "relation/13491200",
        "name": "Percorso 2",
        "network": "lwn",
        "route": "hiking",
        "type": "route"
      },
      "geometry": {
        "type": "LineString",
        "coordinates": [
          [
            9.4518767,
            41.1967596
          ],
          [
            9.4517584,
            41.1968549
          ],
          [
            9.4515967,
            41.1969181
          ],
          [
            9.4515571,
            41.1969146
          ],
          [
            9.4515026,
            41.1969438
          ],
          [
            9.4512422,
            41.1970222
          ],
          [
            9.451024,
            41.1971482
          ],
          [
            9.4508143,
            41.1971884
          ],
          [
            9.4507425,
            41.1972086
          ],
          [
            9.4506095,
            41.1972139
          ],
          [
            9.450352,
            41.197302
          ],
          [
            9.45016,
            41.1973191
          ],
          [
            9.4497785,
            41.1972254
          ],
          [
            9.4496417,
            41.197255
          ],
          [
            9.4494752,
            41.197301
          ],
          [
            9.4492963,
            41.1973181
          ],
          [
            9.4491168,
            41.1973142
          ],
          [
            9.4490245,
            41.197237
          ],
          [
            9.4489628,
            41.1971598
          ],
          [
            9.4488655,
            41.1970903
          ],
          [
            9.44865,
            41.1970286
          ],
          [
            9.4485098,
            41.1970461
          ],
          [
            9.4484566,
            41.1970887
          ],
          [
            9.4484568,
            41.1971415
          ],
          [
            9.4484111,
            41.1972248
          ],
          [
            9.4483269,
            41.1972409
          ],
          [
            9.448173,
            41.197237
          ],
          [
            9.4480864,
            41.1972167
          ],
          [
            9.448002,
            41.197165
          ],
          [
            9.4480002,
            41.1971007
          ],
          [
            9.4480273,
            41.1970571
          ],
          [
            9.4480476,
            41.1969981
          ],
          [
            9.4480796,
            41.1968148
          ],
          [
            9.4480853,
            41.1967537
          ],
          [
            9.4480555,
            41.1966847
          ],
          [
            9.4480345,
            41.1965461
          ],
          [
            9.4480142,
            41.1964605
          ],
          [
            9.4479759,
            41.196384
          ],
          [
            9.4478396,
            41.1962914
          ],
          [
            9.4476632,
            41.1961464
          ],
          [
            9.4476431,
            41.1961379
          ],
          [
            9.447624,
            41.1961314
          ],
          [
            9.4475976,
            41.196137
          ],
          [
            9.4475848,
            41.1961494
          ],
          [
            9.4475805,
            41.196161
          ],
          [
            9.4475839,
            41.1961693
          ],
          [
            9.4476024,
            41.1961847
          ],
          [
            9.4476255,
            41.196208
          ],
          [
            9.4476257,
            41.1962331
          ],
          [
            9.4476363,
            41.1962498
          ],
          [
            9.4476587,
            41.1962617
          ],
          [
            9.4476693,
            41.1962782
          ],
          [
            9.4476712,
            41.196296
          ],
          [
            9.4476687,
            41.1963178
          ],
          [
            9.4476422,
            41.1963356
          ],
          [
            9.4476135,
            41.1963503
          ],
          [
            9.4475822,
            41.1963685
          ],
          [
            9.4475658,
            41.1963884
          ],
          [
            9.4475521,
            41.196406
          ],
          [
            9.4475274,
            41.1964179
          ],
          [
            9.4475003,
            41.1964235
          ],
          [
            9.4474796,
            41.196431
          ],
          [
            9.4474381,
            41.196437
          ],
          [
            9.4474162,
            41.1964278
          ],
          [
            9.4473778,
            41.1964323
          ],
          [
            9.4473548,
            41.1964507
          ],
          [
            9.4473221,
            41.1964539
          ],
          [
            9.4472658,
            41.1964451
          ],
          [
            9.4472245,
            41.1964333
          ],
          [
            9.4471674,
            41.1964312
          ],
          [
            9.4471204,
            41.1964306
          ],
          [
            9.447094,
            41.1964644
          ],
          [
            9.4470843,
            41.1964868
          ],
          [
            9.447065,
            41.1965063
          ],
          [
            9.4470499,
            41.1965403
          ],
          [
            9.4470582,
            41.1965714
          ],
          [
            9.4470826,
            41.1965874
          ]
        ]
      },
      "id": "relation/13491200"
    },
    {
      "type": "Feature",
      "properties": {
        "@id": "relation/13491231",
        "name": "Percorso 3",
        "network": "lwn",
        "route": "hiking",
        "type": "route"
      },
      "geometry": {
        "type": "LineString",
        "coordinates": [
          [
            9.4600635,
            41.1971816
          ],
          [
            9.461891,
            41.1982894
          ],
          [
            9.4621436,
            41.1985329
          ],
          [
            9.4626291,
            41.1987735
          ],
          [
            9.462933,
            41.1989428
          ],
          [
            9.4632093,
            41.1990229
          ],
          [
            9.4635605,
            41.1993318
          ],
          [
            9.4636513,
            41.1994833
          ],
          [
            9.4637579,
            41.1995931
          ],
          [
            9.4639671,
            41.1995991
          ],
          [
            9.4643223,
            41.1998456
          ],
          [
            9.4644526,
            41.1998485
          ],
          [
            9.4649223,
            41.2001366
          ],
          [
            9.465013,
            41.2002851
          ],
          [
            9.4651512,
            41.2004276
          ],
          [
            9.465313,
            41.2005405
          ],
          [
            9.4656248,
            41.2006444
          ],
          [
            9.4659051,
            41.2007573
          ],
          [
            9.4661853,
            41.2008345
          ],
          [
            9.4663313,
            41.2009325
          ],
          [
            9.4665524,
            41.2010216
          ],
          [
            9.4667102,
            41.2011047
          ],
          [
            9.4671799,
            41.2012829
          ],
          [
            9.4672707,
            41.2014641
          ],
          [
            9.4674562,
            41.2016155
          ],
          [
            9.4676457,
            41.2017403
          ],
          [
            9.467847,
            41.2018086
          ],
          [
            9.4679575,
            41.2019036
          ],
          [
            9.4681943,
            41.2020075
          ],
          [
            9.468293,
            41.2021382
          ],
          [
            9.4685574,
            41.2023342
          ],
          [
            9.4687706,
            41.2025658
          ],
          [
            9.4689103,
            41.2026247
          ]
        ]
      },
      "id": "relation/13491231"
    },
    {
      "type": "Feature",
      "properties": {
        "@id": "relation/13491240",
        "name": "Percorso 4",
        "network": "lwn",
        "route": "hiking",
        "type": "route"
      },
      "geometry": {
        "type": "LineString",
        "coordinates": [
          [
            9.4600635,
            41.1971816
          ],
          [
            9.4608411,
            41.1969381
          ],
          [
            9.4609339,
            41.1969099
          ],
          [
            9.4611835,
            41.1969431
          ],
          [
            9.4618883,
            41.196971
          ],
          [
            9.4620422,
            41.1969952
          ],
          [
            9.4621584,
            41.1970647
          ],
          [
            9.4623819,
            41.1972142
          ],
          [
            9.4624229,
            41.1971483
          ],
          [
            9.4623874,
            41.1970396
          ],
          [
            9.4623956,
            41.1964019
          ],
          [
            9.4624065,
            41.1951941
          ],
          [
            9.4624147,
            41.1948762
          ],
          [
            9.4627154,
            41.194439
          ],
          [
            9.4631231,
            41.1938739
          ],
          [
            9.4631445,
            41.19322
          ],
          [
            9.4633216,
            41.1930767
          ],
          [
            9.4633967,
            41.1928688
          ],
          [
            9.4635388,
            41.19257
          ],
          [
            9.4636836,
            41.1924611
          ],
          [
            9.463689,
            41.1922834
          ],
          [
            9.4636006,
            41.1919867
          ],
          [
            9.4638634,
            41.1917506
          ],
          [
            9.4639251,
            41.1917183
          ],
          [
            9.4640002,
            41.1915528
          ],
          [
            9.4640913,
            41.1907999
          ],
          [
            9.4640055,
            41.1905547
          ],
          [
            9.4640512,
            41.1903095
          ],
          [
            9.4642282,
            41.190047
          ],
          [
            9.4642845,
            41.1898412
          ],
          [
            9.4644146,
            41.1896797
          ],
          [
            9.4648305,
            41.189427
          ],
          [
            9.4647887,
            41.1892074
          ],
          [
            9.464668,
            41.1890641
          ],
          [
            9.4645044,
            41.1890782
          ],
          [
            9.4643998,
            41.1890661
          ],
          [
            9.4643676,
            41.1888985
          ],
          [
            9.4643462,
            41.188725
          ],
          [
            9.4643033,
            41.1884222
          ],
          [
            9.4642416,
            41.1879054
          ],
          [
            9.464153,
            41.1875865
          ],
          [
            9.4642684,
            41.1874331
          ],
          [
            9.4642362,
            41.1873322
          ],
          [
            9.4642845,
            41.1871465
          ],
          [
            9.4642389,
            41.1870496
          ],
          [
            9.4642684,
            41.1869648
          ],
          [
            9.4644856,
            41.1868255
          ],
          [
            9.4647485,
            41.1865914
          ],
          [
            9.4648477,
            41.1864057
          ],
          [
            9.4647297,
            41.1862321
          ],
          [
            9.4647405,
            41.1860807
          ],
          [
            9.4646358,
            41.1859616
          ],
          [
            9.4646922,
            41.1858687
          ],
          [
            9.4646305,
            41.1857638
          ],
          [
            9.4646144,
            41.1855518
          ],
          [
            9.4644856,
            41.1854307
          ],
          [
            9.4642952,
            41.1851764
          ],
          [
            9.4641048,
            41.1851562
          ],
          [
            9.463968,
            41.1850108
          ],
          [
            9.4639251,
            41.1849079
          ],
          [
            9.4637668,
            41.1847222
          ],
          [
            9.4636729,
            41.1845587
          ],
          [
            9.4637775,
            41.1843043
          ],
          [
            9.4638526,
            41.1841025
          ],
          [
            9.46385,
            41.1838663
          ],
          [
            9.4632497,
            41.1834907
          ],
          [
            9.462969,
            41.1833416
          ],
          [
            9.462949,
            41.1832679
          ]
        ]
      },
      "id": "relation/13491240"
    },
    {
      "type": "Feature",
      "properties": {
        "@id": "relation/13491249",
        "name": "Percorso 5",
        "network": "lwn",
        "route": "hiking",
        "type": "route"
      },
      "geometry": {
        "type": "LineString",
        "coordinates": [
          [
            9.4747978,
            41.2045486
          ],
          [
            9.4744561,
            41.2043949
          ],
          [
            9.4741731,
            41.2041357
          ],
          [
            9.4740705,
            41.2039814
          ],
          [
            9.4737392,
            41.203792
          ],
          [
            9.4736104,
            41.2037646
          ],
          [
            9.4735442,
            41.2038333
          ],
          [
            9.4736449,
            41.2039137
          ],
          [
            9.4737217,
            41.2040172
          ],
          [
            9.4736565,
            41.2040304
          ],
          [
            9.4734691,
            41.2039357
          ],
          [
            9.4732013,
            41.2038445
          ],
          [
            9.4729026,
            41.2038214
          ],
          [
            9.4727155,
            41.2038712
          ],
          [
            9.4725101,
            41.2038408
          ],
          [
            9.4724333,
            41.2037584
          ],
          [
            9.4723725,
            41.2035365
          ],
          [
            9.4722293,
            41.2033332
          ],
          [
            9.4721075,
            41.2032571
          ],
          [
            9.4719449,
            41.2031666
          ],
          [
            9.4718975,
            41.2031259
          ],
          [
            9.4718528,
            41.2029184
          ],
          [
            9.4718134,
            41.2028568
          ],
          [
            9.4717544,
            41.2027902
          ],
          [
            9.4716531,
            41.2027373
          ],
          [
            9.471568,
            41.2026893
          ],
          [
            9.4711268,
            41.2023685
          ],
          [
            9.4710839,
            41.2023513
          ],
          [
            9.4708802,
            41.2022203
          ],
          [
            9.4708157,
            41.2022222
          ],
          [
            9.4707854,
            41.2022522
          ],
          [
            9.4706738,
            41.2023471
          ],
          [
            9.4705676,
            41.2023856
          ],
          [
            9.4705311,
            41.2023823
          ],
          [
            9.4704053,
            41.2023271
          ],
          [
            9.4703359,
            41.2022818
          ],
          [
            9.4703007,
            41.2022403
          ],
          [
            9.4702681,
            41.2021701
          ],
          [
            9.4702098,
            41.202101
          ],
          [
            9.4700175,
            41.2019129
          ],
          [
            9.4698196,
            41.2017791
          ],
          [
            9.4697091,
            41.201834
          ],
          [
            9.4696088,
            41.2019218
          ],
          [
            9.4694097,
            41.2019379
          ],
          [
            9.4694625,
            41.2020526
          ],
          [
            9.4694766,
            41.2021435
          ],
          [
            9.469433,
            41.2022676
          ],
          [
            9.4693704,
            41.2023686
          ],
          [
            9.4691853,
            41.2024869
          ],
          [
            9.4689971,
            41.2025505
          ],
          [
            9.4689103,
            41.2026247
          ]
        ]
      },
      "id": "relation/13491249"
    },
    {
      "type": "Feature",
      "properties": {
        "@id": "relation/13491254",
        "name": "Percorso 6",
        "network": "lwn",
        "route": "hiking",
        "type": "route"
      },
      "geometry": {
        "type": "LineString",
        "coordinates": [
          [
            9.4664656,
            41.2113906
          ],
          [
            9.4665398,
            41.2113987
          ],
          [
            9.4666794,
            41.2112505
          ],
          [
            9.4674426,
            41.2110715
          ],
          [
            9.4675904,
            41.2108862
          ],
          [
            9.4678202,
            41.2105405
          ],
          [
            9.4681648,
            41.2101639
          ],
          [
            9.4683208,
            41.2101206
          ],
          [
            9.4684931,
            41.2099972
          ],
          [
            9.4686491,
            41.2096144
          ],
          [
            9.4689199,
            41.2092686
          ],
          [
            9.4692963,
            41.208752
          ],
          [
            9.4693467,
            41.2086203
          ],
          [
            9.4693566,
            41.2084993
          ],
          [
            9.4693959,
            41.2080214
          ],
          [
            9.4693631,
            41.2073175
          ],
          [
            9.4691661,
            41.2064037
          ],
          [
            9.469002,
            41.2059282
          ],
          [
            9.469002,
            41.2056319
          ],
          [
            9.4688625,
            41.2051996
          ],
          [
            9.4692265,
            41.2052582
          ],
          [
            9.4695679,
            41.2054558
          ],
          [
            9.4699041,
            41.2057838
          ],
          [
            9.4698681,
            41.2060153
          ],
          [
            9.4698461,
            41.2060854
          ],
          [
            9.4698197,
            41.2062688
          ],
          [
            9.4700512,
            41.2064121
          ],
          [
            9.4701405,
            41.2065069
          ],
          [
            9.4701507,
            41.2070499
          ],
          [
            9.4703087,
            41.2074616
          ],
          [
            9.4702665,
            41.2076648
          ],
          [
            9.4703745,
            41.2080105
          ],
          [
            9.4703926,
            41.2080402
          ],
          [
            9.4704871,
            41.2081627
          ],
          [
            9.4706394,
            41.2082298
          ],
          [
            9.4706815,
            41.208376
          ],
          [
            9.4707011,
            41.2085666
          ],
          [
            9.470713,
            41.2090676
          ],
          [
            9.4707603,
            41.2092928
          ],
          [
            9.4706762,
            41.2093995
          ],
          [
            9.4706447,
            41.2095576
          ],
          [
            9.4706342,
            41.2100989
          ],
          [
            9.4707188,
            41.2102642
          ],
          [
            9.4707893,
            41.2103768
          ],
          [
            9.4708183,
            41.2104886
          ],
          [
            9.470776,
            41.2105889
          ],
          [
            9.4706958,
            41.2107062
          ],
          [
            9.4706906,
            41.2109318
          ],
          [
            9.4705586,
            41.2110909
          ],
          [
            9.4705344,
            41.2112725
          ],
          [
            9.470632,
            41.2115913
          ],
          [
            9.4707074,
            41.2118619
          ],
          [
            9.4705926,
            41.2120704
          ],
          [
            9.4705701,
            41.2121278
          ],
          [
            9.4704941,
            41.212263
          ],
          [
            9.4704416,
            41.2123717
          ],
          [
            9.4704766,
            41.2124785
          ],
          [
            9.4704022,
            41.2126186
          ],
          [
            9.470376,
            41.2127372
          ],
          [
            9.4703497,
            41.2128557
          ],
          [
            9.4702906,
            41.21291
          ],
          [
            9.4701964,
            41.2129378
          ]
        ]
      },
      "id": "relation/13491254"
    },
    {
      "type": "Feature",
      "properties": {
        "@id": "relation/13491263",
        "name": "Percorso 7",
        "network": "lwn",
        "route": "hiking",
        "type": "route"
      },
      "geometry": {
        "type": "LineString",
        "coordinates": [
          [
            9.4710007,
            41.2160895
          ],
          [
            9.4710947,
            41.2157752
          ],
          [
            9.4712244,
            41.2156436
          ],
          [
            9.4712244,
            41.2154024
          ],
          [
            9.4713285,
            41.2153632
          ],
          [
            9.471605,
            41.2153783
          ],
          [
            9.4717533,
            41.2153512
          ],
          [
            9.4718335,
            41.215306
          ],
          [
            9.4720619,
            41.2153301
          ],
          [
            9.4722342,
            41.2153241
          ],
          [
            9.4723304,
            41.2152788
          ],
          [
            9.4723825,
            41.2151974
          ],
          [
            9.4723384,
            41.2151372
          ],
          [
            9.4723825,
            41.2150558
          ],
          [
            9.4723224,
            41.21489
          ],
          [
            9.4723143,
            41.2145644
          ],
          [
            9.4725347,
            41.2142449
          ],
          [
            9.4725989,
            41.2141966
          ],
          [
            9.4725949,
            41.2139133
          ],
          [
            9.4725267,
            41.2138198
          ],
          [
            9.4726069,
            41.2136239
          ],
          [
            9.4727031,
            41.2134249
          ],
          [
            9.4726127,
            41.2133999
          ],
          [
            9.4724834,
            41.2133632
          ],
          [
            9.4724128,
            41.213321
          ],
          [
            9.4722006,
            41.2131981
          ],
          [
            9.4721274,
            41.2132201
          ],
          [
            9.4720641,
            41.2131872
          ],
          [
            9.4720177,
            41.2131468
          ],
          [
            9.4719958,
            41.2131193
          ],
          [
            9.4719664,
            41.2131266
          ],
          [
            9.4719446,
            41.213211
          ],
          [
            9.4719822,
            41.2134039
          ],
          [
            9.4719885,
            41.2134443
          ],
          [
            9.4719933,
            41.2134623
          ],
          [
            9.4719322,
            41.2134407
          ],
          [
            9.4719123,
            41.2134265
          ],
          [
            9.4718882,
            41.2134316
          ],
          [
            9.4718869,
            41.2135039
          ],
          [
            9.4718853,
            41.2135293
          ],
          [
            9.4718534,
            41.2135377
          ],
          [
            9.4717519,
            41.2134439
          ],
          [
            9.4715606,
            41.2133536
          ],
          [
            9.4714572,
            41.2132597
          ],
          [
            9.4713709,
            41.2131882
          ],
          [
            9.4713369,
            41.213183
          ],
          [
            9.4712496,
            41.2132843
          ],
          [
            9.471218,
            41.2132953
          ],
          [
            9.4711789,
            41.2132843
          ],
          [
            9.4711131,
            41.2131816
          ],
          [
            9.4710789,
            41.2131742
          ],
          [
            9.4710448,
            41.213189
          ],
          [
            9.470918,
            41.2132843
          ],
          [
            9.4708473,
            41.2132899
          ],
          [
            9.4707766,
            41.2132825
          ],
          [
            9.4707352,
            41.2132403
          ],
          [
            9.4706888,
            41.2131614
          ],
          [
            9.4706913,
            41.2130807
          ],
          [
            9.4706693,
            41.2130074
          ],
          [
            9.470562,
            41.2129028
          ],
          [
            9.4704401,
            41.2129339
          ],
          [
            9.4703231,
            41.2129487
          ],
          [
            9.4702694,
            41.2129523
          ],
          [
            9.4701964,
            41.2129378
          ],
          [
            9.4701517,
            41.2129747
          ],
          [
            9.4700805,
            41.2130137
          ],
          [
            9.4695526,
            41.2135055
          ]
        ]
      },
      "id": "relation/13491263"
    },
    {
      "type": "Feature",
      "properties": {
        "@id": "relation/13491267",
        "name": "Percorso 8",
        "network": "lwn",
        "route": "hiking",
        "type": "route"
      },
      "geometry": {
        "type": "LineString",
        "coordinates": [
          [
            9.4724345,
            41.2226676
          ],
          [
            9.4718885,
            41.222314
          ],
          [
            9.4717229,
            41.2222093
          ],
          [
            9.4716716,
            41.22215
          ],
          [
            9.4716824,
            41.2220291
          ],
          [
            9.4715992,
            41.2219794
          ],
          [
            9.4715592,
            41.2219453
          ],
          [
            9.471503,
            41.2219216
          ],
          [
            9.4714468,
            41.2218504
          ],
          [
            9.4714054,
            41.2218259
          ],
          [
            9.4713817,
            41.221794
          ],
          [
            9.4713167,
            41.2217621
          ],
          [
            9.4713038,
            41.2217065
          ],
          [
            9.4712407,
            41.2216449
          ],
          [
            9.4711319,
            41.2216076
          ],
          [
            9.4710386,
            41.221553
          ],
          [
            9.4708286,
            41.2214373
          ],
          [
            9.470594,
            41.2212704
          ],
          [
            9.4704326,
            41.2211977
          ],
          [
            9.4703751,
            41.2211207
          ],
          [
            9.4702341,
            41.2210747
          ],
          [
            9.4701493,
            41.2211177
          ],
          [
            9.4699949,
            41.2209502
          ],
          [
            9.4698871,
            41.2208937
          ],
          [
            9.4697615,
            41.2208977
          ],
          [
            9.4696879,
            41.2209241
          ],
          [
            9.469613,
            41.2208908
          ],
          [
            9.4694641,
            41.2209049
          ],
          [
            9.4694558,
            41.2209966
          ],
          [
            9.469412,
            41.221239
          ],
          [
            9.4693441,
            41.2212597
          ],
          [
            9.4691885,
            41.2211944
          ],
          [
            9.4690403,
            41.2210919
          ],
          [
            9.468931,
            41.2210888
          ],
          [
            9.4688189,
            41.2211199
          ],
          [
            9.468692,
            41.2210847
          ],
          [
            9.4685654,
            41.2210288
          ],
          [
            9.4684472,
            41.2209467
          ],
          [
            9.4681898,
            41.2208695
          ],
          [
            9.4679216,
            41.220817
          ],
          [
            9.4676978,
            41.2208001
          ],
          [
            9.4675852,
            41.2207319
          ],
          [
            9.4674937,
            41.220633
          ],
          [
            9.4674311,
            41.2205099
          ],
          [
            9.4672151,
            41.2203267
          ],
          [
            9.4671786,
            41.2200927
          ],
          [
            9.4671062,
            41.2199273
          ],
          [
            9.4667414,
            41.2197518
          ],
          [
            9.466449,
            41.2196771
          ],
          [
            9.4662419,
            41.2197163
          ],
          [
            9.4662134,
            41.2196458
          ],
          [
            9.4661257,
            41.2195523
          ],
          [
            9.4660217,
            41.219448
          ],
          [
            9.465883,
            41.2193345
          ],
          [
            9.46583,
            41.2192102
          ],
          [
            9.465775,
            41.2189924
          ],
          [
            9.4657811,
            41.2187946
          ],
          [
            9.4656689,
            41.2185568
          ],
          [
            9.4656078,
            41.2184495
          ],
          [
            9.4654079,
            41.2184357
          ],
          [
            9.4653386,
            41.2184418
          ],
          [
            9.4652061,
            41.2184372
          ],
          [
            9.4651775,
            41.2183943
          ],
          [
            9.4650919,
            41.2183559
          ],
          [
            9.4648818,
            41.2183513
          ],
          [
            9.4647656,
            41.2183912
          ],
          [
            9.4645554,
            41.2185917
          ],
          [
            9.4644481,
            41.2186562
          ],
          [
            9.4642845,
            41.2186461
          ],
          [
            9.4642317,
            41.2185898
          ],
          [
            9.4640914,
            41.2185836
          ],
          [
            9.4640014,
            41.2184774
          ],
          [
            9.4639721,
            41.2182942
          ],
          [
            9.4639355,
            41.2181112
          ],
          [
            9.4639603,
            41.2179541
          ],
          [
            9.4640081,
            41.217853
          ],
          [
            9.4640277,
            41.217618
          ],
          [
            9.464036,
            41.2174761
          ],
          [
            9.4641387,
            41.2174098
          ],
          [
            9.4641815,
            41.2172957
          ],
          [
            9.4641221,
            41.2171061
          ],
          [
            9.4640908,
            41.2169036
          ],
          [
            9.4640895,
            41.2168188
          ],
          [
            9.4639286,
            41.2166757
          ],
          [
            9.463832,
            41.2165414
          ],
          [
            9.4637495,
            41.2163647
          ],
          [
            9.4636708,
            41.2161628
          ],
          [
            9.4636123,
            41.2160572
          ],
          [
            9.4636511,
            41.2159558
          ],
          [
            9.4634978,
            41.2158119
          ],
          [
            9.4634818,
            41.2157145
          ],
          [
            9.4634712,
            41.21565
          ],
          [
            9.463639,
            41.2155415
          ],
          [
            9.4637058,
            41.2154745
          ],
          [
            9.4638146,
            41.2154518
          ],
          [
            9.4640964,
            41.2154281
          ],
          [
            9.4642602,
            41.2152576
          ],
          [
            9.464483,
            41.2152862
          ],
          [
            9.464749,
            41.215298
          ],
          [
            9.4648762,
            41.21523
          ],
          [
            9.4650177,
            41.2152034
          ],
          [
            9.4651501,
            41.2151048
          ],
          [
            9.4652733,
            41.2149244
          ],
          [
            9.4653598,
            41.2147183
          ],
          [
            9.4654174,
            41.214529
          ],
          [
            9.4655957,
            41.2143664
          ],
          [
            9.4657988,
            41.2142461
          ],
          [
            9.465872,
            41.2140661
          ],
          [
            9.4659189,
            41.2139385
          ],
          [
            9.4659937,
            41.2136735
          ],
          [
            9.4660421,
            41.2134546
          ],
          [
            9.4660201,
            41.2131813
          ],
          [
            9.466193,
            41.2129161
          ],
          [
            9.4662882,
            41.2128695
          ]
        ]
      },
      "id": "relation/13491267"
    },
    {
      "type": "Feature",
      "properties": {
        "@id": "relation/13491268",
        "name": "Percorso 9",
        "network": "lwn",
        "route": "hiking",
        "type": "route"
      },
      "geometry": {
        "type": "LineString",
        "coordinates": [
          [
            9.4730422,
            41.2220302
          ],
          [
            9.4732136,
            41.2220604
          ],
          [
            9.4733443,
            41.2221182
          ],
          [
            9.4734405,
            41.2221934
          ],
          [
            9.4735213,
            41.2222455
          ],
          [
            9.473602,
            41.2222715
          ],
          [
            9.4736751,
            41.2222687
          ],
          [
            9.473779,
            41.2222918
          ],
          [
            9.4738443,
            41.2223525
          ],
          [
            9.4739097,
            41.2224046
          ],
          [
            9.4740328,
            41.2224422
          ],
          [
            9.4740982,
            41.2224249
          ],
          [
            9.4741713,
            41.2224712
          ],
          [
            9.4742443,
            41.2225232
          ],
          [
            9.4743405,
            41.2225377
          ],
          [
            9.4744982,
            41.2225695
          ],
          [
            9.4746328,
            41.2226447
          ],
          [
            9.4747597,
            41.2227142
          ],
          [
            9.4749097,
            41.2227633
          ],
          [
            9.4750328,
            41.2227518
          ],
          [
            9.4751443,
            41.2227055
          ],
          [
            9.4751867,
            41.2226187
          ],
          [
            9.4751943,
            41.2225117
          ],
          [
            9.475202,
            41.2224046
          ],
          [
            9.475252,
            41.2222484
          ],
          [
            9.4753097,
            41.2222079
          ],
          [
            9.4753751,
            41.2221529
          ],
          [
            9.4753943,
            41.2221009
          ],
          [
            9.4753443,
            41.2220256
          ],
          [
            9.4753828,
            41.2219186
          ],
          [
            9.4754518,
            41.2216687
          ],
          [
            9.4754891,
            41.221581
          ],
          [
            9.4755982,
            41.2214789
          ],
          [
            9.4756683,
            41.2213666
          ],
          [
            9.4756758,
            41.2212972
          ],
          [
            9.4758367,
            41.2212503
          ],
          [
            9.475929,
            41.2211578
          ],
          [
            9.476029,
            41.2210305
          ],
          [
            9.4760636,
            41.2209176
          ],
          [
            9.4760905,
            41.2208106
          ],
          [
            9.4761405,
            41.2207151
          ],
          [
            9.476152,
            41.2206168
          ],
          [
            9.4761559,
            41.2205358
          ],
          [
            9.4762174,
            41.2204605
          ],
          [
            9.4762982,
            41.2203882
          ],
          [
            9.4763482,
            41.2203014
          ],
          [
            9.4763751,
            41.2202031
          ],
          [
            9.4763597,
            41.2201336
          ],
          [
            9.476429,
            41.2200584
          ],
          [
            9.4764328,
            41.2199774
          ],
          [
            9.4764106,
            41.2198352
          ],
          [
            9.4764099,
            41.2197904
          ],
          [
            9.476413,
            41.2197596
          ],
          [
            9.4763826,
            41.2195787
          ],
          [
            9.476355,
            41.2194916
          ],
          [
            9.4763138,
            41.2194618
          ],
          [
            9.4762712,
            41.2194117
          ],
          [
            9.4762356,
            41.2193447
          ],
          [
            9.4762264,
            41.219317
          ],
          [
            9.4762032,
            41.2192832
          ]
        ]
      },
      "id": "relation/13491268"
    },
    {
      "type": "Feature",
      "properties": {
        "@id": "relation/13491270",
        "name": "Percorso 10",
        "network": "lwn",
        "route": "hiking",
        "type": "route"
      },
      "geometry": {
        "type": "LineString",
        "coordinates": [
          [
            9.4845713,
            41.2188983
          ],
          [
            9.4846173,
            41.2189981
          ],
          [
            9.4846711,
            41.2190948
          ],
          [
            9.4846546,
            41.2192306
          ],
          [
            9.4846692,
            41.21948
          ],
          [
            9.4846953,
            41.2197752
          ],
          [
            9.4846285,
            41.2199349
          ],
          [
            9.4845587,
            41.2201142
          ],
          [
            9.4844703,
            41.2202727
          ],
          [
            9.4843715,
            41.2203328
          ],
          [
            9.4842388,
            41.2203329
          ],
          [
            9.4841341,
            41.2203548
          ],
          [
            9.4840004,
            41.2203461
          ],
          [
            9.483948,
            41.220357
          ],
          [
            9.4838917,
            41.2203444
          ],
          [
            9.4838492,
            41.2203067
          ],
          [
            9.4837271,
            41.2203045
          ],
          [
            9.4835904,
            41.2202914
          ],
          [
            9.4833551,
            41.2203373
          ],
          [
            9.4832211,
            41.2203767
          ],
          [
            9.4831281,
            41.2204182
          ],
          [
            9.4830525,
            41.2204357
          ],
          [
            9.4829478,
            41.2204357
          ],
          [
            9.4828722,
            41.2204773
          ],
          [
            9.4827879,
            41.2205451
          ],
          [
            9.4826832,
            41.2205538
          ],
          [
            9.4826308,
            41.2206063
          ],
          [
            9.4824837,
            41.2206473
          ],
          [
            9.4823725,
            41.2206668
          ],
          [
            9.4822984,
            41.2206823
          ],
          [
            9.482235,
            41.2207016
          ],
          [
            9.4821536,
            41.2207232
          ],
          [
            9.4820622,
            41.2207176
          ],
          [
            9.4820026,
            41.2207432
          ],
          [
            9.4819609,
            41.2208157
          ],
          [
            9.4819297,
            41.2209356
          ],
          [
            9.4819475,
            41.2209972
          ],
          [
            9.4819639,
            41.2211035
          ],
          [
            9.4819416,
            41.2212066
          ],
          [
            9.4818776,
            41.221332
          ],
          [
            9.4818404,
            41.2214137
          ],
          [
            9.4817257,
            41.2214742
          ],
          [
            9.4816959,
            41.2215335
          ],
          [
            9.4816453,
            41.2217609
          ],
          [
            9.4816394,
            41.2218919
          ],
          [
            9.4816051,
            41.2219803
          ],
          [
            9.4814339,
            41.2222054
          ],
          [
            9.4813342,
            41.2222771
          ],
          [
            9.4812389,
            41.2223342
          ],
          [
            9.4810349,
            41.2223947
          ],
          [
            9.4808444,
            41.222463
          ],
          [
            9.4806002,
            41.2225033
          ],
          [
            9.480435,
            41.2225234
          ],
          [
            9.4802801,
            41.2225772
          ],
          [
            9.4800881,
            41.2227015
          ],
          [
            9.479762,
            41.2228392
          ],
          [
            9.4796563,
            41.2229198
          ],
          [
            9.4795581,
            41.2229277
          ],
          [
            9.4795179,
            41.2229064
          ],
          [
            9.4794836,
            41.2229064
          ],
          [
            9.4793779,
            41.2229377
          ],
          [
            9.4792469,
            41.2229478
          ],
          [
            9.4791499,
            41.2230533
          ],
          [
            9.4789968,
            41.2231281
          ],
          [
            9.4789001,
            41.22323
          ],
          [
            9.4788718,
            41.2232938
          ],
          [
            9.4788286,
            41.2233364
          ],
          [
            9.4788167,
            41.2233845
          ],
          [
            9.4786812,
            41.2235447
          ],
          [
            9.4786336,
            41.2236398
          ],
          [
            9.478641,
            41.2237675
          ],
          [
            9.4785621,
            41.2238817
          ],
          [
            9.4785562,
            41.2239993
          ],
          [
            9.4785606,
            41.2241359
          ],
          [
            9.4785428,
            41.224202
          ],
          [
            9.4785576,
            41.2242456
          ],
          [
            9.4785026,
            41.224343
          ],
          [
            9.4785026,
            41.2244304
          ],
          [
            9.4784921,
            41.2245771
          ],
          [
            9.4784356,
            41.2246667
          ],
          [
            9.478379,
            41.2247148
          ],
          [
            9.4782033,
            41.224857
          ],
          [
            9.4781735,
            41.2249298
          ],
          [
            9.4781319,
            41.2249858
          ],
          [
            9.4779577,
            41.2250821
          ],
          [
            9.4777805,
            41.2251526
          ],
          [
            9.477612,
            41.2251927
          ],
          [
            9.4775125,
            41.2252164
          ],
          [
            9.477252,
            41.2252948
          ],
          [
            9.4770838,
            41.2253911
          ],
          [
            9.4769766,
            41.2254829
          ],
          [
            9.476923,
            41.2255736
          ],
          [
            9.4768143,
            41.2256621
          ],
          [
            9.4767592,
            41.2257114
          ],
          [
            9.4766565,
            41.2257125
          ],
          [
            9.4765195,
            41.2256856
          ],
          [
            9.4764421,
            41.2256834
          ],
          [
            9.4761578,
            41.2256711
          ],
          [
            9.4761042,
            41.2256811
          ],
          [
            9.4759032,
            41.2257013
          ],
          [
            9.4756948,
            41.2257114
          ],
          [
            9.4755831,
            41.2257192
          ],
          [
            9.475467,
            41.2256767
          ],
          [
            9.4752407,
            41.2256285
          ],
          [
            9.4751705,
            41.2256431
          ],
          [
            9.4751413,
            41.2256494
          ],
          [
            9.4751267,
            41.2256814
          ],
          [
            9.4750925,
            41.2257734
          ],
          [
            9.4750278,
            41.225848
          ],
          [
            9.4749653,
            41.2258737
          ],
          [
            9.4749578,
            41.2259107
          ],
          [
            9.4749087,
            41.2259555
          ],
          [
            9.4748357,
            41.2259835
          ],
          [
            9.4746958,
            41.226174
          ],
          [
            9.474535,
            41.2263765
          ],
          [
            9.4745007,
            41.2264233
          ],
          [
            9.4744576,
            41.2264634
          ],
          [
            9.4743183,
            41.2265673
          ],
          [
            9.4741517,
            41.2266269
          ]
        ]
      },
      "id": "relation/13491270"
    },
    {
      "type": "Feature",
      "properties": {
        "@id": "relation/13491350",
        "name": "Percorso 12",
        "network": "lwn",
        "route": "hiking",
        "type": "route"
      },
      "geometry": {
        "type": "LineString",
        "coordinates": [
          [
            9.4697963,
            41.2402084
          ],
          [
            9.4700171,
            41.2403768
          ],
          [
            9.4701072,
            41.2403593
          ],
          [
            9.4705208,
            41.2403982
          ],
          [
            9.4705931,
            41.2402738
          ],
          [
            9.4709033,
            41.2401727
          ],
          [
            9.4711101,
            41.2401805
          ],
          [
            9.4712549,
            41.2400094
          ],
          [
            9.4714203,
            41.240025
          ],
          [
            9.4717408,
            41.2397684
          ],
          [
            9.471989,
            41.2395585
          ],
          [
            9.4718753,
            41.2392553
          ],
          [
            9.4716685,
            41.2390065
          ],
          [
            9.4716788,
            41.2387732
          ],
          [
            9.471927,
            41.2385244
          ],
          [
            9.4719683,
            41.2382134
          ],
          [
            9.4723612,
            41.2376302
          ],
          [
            9.4727128,
            41.237257
          ],
          [
            9.4732815,
            41.2371248
          ],
          [
            9.4735296,
            41.2370471
          ],
          [
            9.4737674,
            41.2368449
          ],
          [
            9.4742534,
            41.2372259
          ],
          [
            9.4744705,
            41.2375058
          ],
          [
            9.4747084,
            41.2374359
          ],
          [
            9.4750185,
            41.2375214
          ],
          [
            9.4754838,
            41.2375214
          ],
          [
            9.475701,
            41.2375991
          ],
          [
            9.4764868,
            41.2375058
          ],
          [
            9.4766315,
            41.2374359
          ],
          [
            9.4770348,
            41.2374048
          ],
          [
            9.4772519,
            41.2372182
          ],
          [
            9.4772106,
            41.2371015
          ],
          [
            9.4774791,
            41.2366718
          ]
        ]
      },
      "id": "relation/13491350"
    },
    {
      "type": "Feature",
      "properties": {
        "@id": "relation/13491351",
        "name": "Percorso 13",
        "network": "lwn",
        "route": "hiking",
        "type": "route"
      },
      "geometry": {
        "type": "LineString",
        "coordinates": [
          [
            9.4689741,
            41.2385141
          ],
          [
            9.4689979,
            41.2386449
          ],
          [
            9.4690509,
            41.2387127
          ],
          [
            9.4690423,
            41.2387568
          ],
          [
            9.4691153,
            41.2388881
          ],
          [
            9.4691525,
            41.2389161
          ],
          [
            9.4691725,
            41.2390205
          ],
          [
            9.4692026,
            41.2390442
          ],
          [
            9.4692226,
            41.239238
          ],
          [
            9.4692696,
            41.2394341
          ],
          [
            9.4692613,
            41.2396427
          ],
          [
            9.4693608,
            41.2397893
          ],
          [
            9.4693597,
            41.2399967
          ],
          [
            9.4693744,
            41.2401432
          ],
          [
            9.4694144,
            41.2401883
          ],
          [
            9.4697963,
            41.2402084
          ],
          [
            9.4697825,
            41.2402439
          ],
          [
            9.4696559,
            41.2404456
          ],
          [
            9.4696323,
            41.240607
          ],
          [
            9.4695338,
            41.2406683
          ],
          [
            9.4693514,
            41.2407184
          ],
          [
            9.4691977,
            41.2407663
          ],
          [
            9.4692119,
            41.240878
          ],
          [
            9.4693105,
            41.2411346
          ],
          [
            9.4694423,
            41.2414326
          ],
          [
            9.4695088,
            41.2416521
          ],
          [
            9.4695745,
            41.2419284
          ],
          [
            9.4695874,
            41.242114
          ],
          [
            9.469523,
            41.2422205
          ],
          [
            9.4693199,
            41.2423248
          ],
          [
            9.4691281,
            41.2423629
          ],
          [
            9.468922,
            41.2423724
          ],
          [
            9.4689086,
            41.2424551
          ],
          [
            9.4691044,
            41.2425398
          ],
          [
            9.4692927,
            41.2425405
          ],
          [
            9.469388,
            41.2426129
          ],
          [
            9.4694182,
            41.2426809
          ],
          [
            9.4694611,
            41.2428201
          ],
          [
            9.4695362,
            41.2429835
          ],
          [
            9.4695577,
            41.2430883
          ],
          [
            9.4695818,
            41.2432114
          ],
          [
            9.4696704,
            41.2433203
          ],
          [
            9.4697025,
            41.2434473
          ],
          [
            9.4696569,
            41.2435502
          ],
          [
            9.4696811,
            41.2436732
          ],
          [
            9.4697213,
            41.2437781
          ],
          [
            9.4697562,
            41.2438648
          ]
        ]
      },
      "id": "relation/13491351"
    },
    {
      "type": "Feature",
      "properties": {
        "@id": "relation/13491352",
        "name": "Percorso 14",
        "network": "lwn",
        "route": "hiking",
        "type": "route"
      },
      "geometry": {
        "type": "LineString",
        "coordinates": [
          [
            9.4669353,
            41.2384991
          ],
          [
            9.4668459,
            41.23858
          ],
          [
            9.4668366,
            41.2386773
          ],
          [
            9.4667601,
            41.2387978
          ],
          [
            9.4666069,
            41.2389936
          ],
          [
            9.4665029,
            41.2390614
          ],
          [
            9.4664318,
            41.2391387
          ],
          [
            9.4663425,
            41.2391874
          ],
          [
            9.4662395,
            41.2393391
          ],
          [
            9.4661178,
            41.2394037
          ],
          [
            9.4660276,
            41.2395341
          ],
          [
            9.4658559,
            41.2397437
          ],
          [
            9.4656527,
            41.2398047
          ],
          [
            9.4656309,
            41.2398904
          ],
          [
            9.4656497,
            41.2399527
          ],
          [
            9.4656368,
            41.2399979
          ],
          [
            9.4656479,
            41.2400502
          ],
          [
            9.465624,
            41.2400862
          ],
          [
            9.4656225,
            41.2401368
          ],
          [
            9.465591,
            41.2402032
          ],
          [
            9.4655381,
            41.2402347
          ],
          [
            9.4655368,
            41.2402806
          ],
          [
            9.4654522,
            41.2403649
          ],
          [
            9.4654452,
            41.2404729
          ],
          [
            9.4654085,
            41.2405097
          ],
          [
            9.4654386,
            41.2405286
          ],
          [
            9.4654452,
            41.2405871
          ],
          [
            9.4653799,
            41.2406297
          ],
          [
            9.4653391,
            41.2406938
          ],
          [
            9.4652904,
            41.2407175
          ],
          [
            9.4653014,
            41.2407606
          ],
          [
            9.4652271,
            41.2408496
          ],
          [
            9.4651674,
            41.240933
          ],
          [
            9.4650726,
            41.2410574
          ],
          [
            9.4649972,
            41.2411451
          ],
          [
            9.4648977,
            41.2412579
          ],
          [
            9.464852,
            41.2413677
          ],
          [
            9.464818,
            41.2414526
          ],
          [
            9.4647629,
            41.2415097
          ],
          [
            9.4646996,
            41.2415376
          ],
          [
            9.4646992,
            41.2416017
          ],
          [
            9.4646639,
            41.2416527
          ],
          [
            9.4646246,
            41.2418167
          ],
          [
            9.4646337,
            41.2418872
          ],
          [
            9.4646048,
            41.2419243
          ],
          [
            9.4645273,
            41.2419812
          ],
          [
            9.4645466,
            41.2420853
          ],
          [
            9.4645525,
            41.2421566
          ],
          [
            9.4645434,
            41.2422017
          ],
          [
            9.4645389,
            41.2422459
          ],
          [
            9.4645259,
            41.2422882
          ],
          [
            9.4645492,
            41.2423416
          ],
          [
            9.4646069,
            41.2423529
          ],
          [
            9.464667,
            41.2423374
          ],
          [
            9.4647094,
            41.2423334
          ],
          [
            9.4647458,
            41.242311
          ],
          [
            9.4648338,
            41.2423019
          ],
          [
            9.4648667,
            41.2423229
          ],
          [
            9.4649161,
            41.2423206
          ],
          [
            9.4650278,
            41.2423175
          ],
          [
            9.4650449,
            41.2423616
          ],
          [
            9.4650927,
            41.2423835
          ],
          [
            9.4651408,
            41.2424047
          ],
          [
            9.465258,
            41.242405
          ],
          [
            9.4654654,
            41.2424351
          ],
          [
            9.4654923,
            41.2424289
          ],
          [
            9.4655309,
            41.2423939
          ],
          [
            9.4655667,
            41.242388
          ],
          [
            9.4655989,
            41.2423498
          ],
          [
            9.4656678,
            41.2423222
          ],
          [
            9.465712,
            41.2423277
          ],
          [
            9.4658209,
            41.242292
          ],
          [
            9.4658959,
            41.2422534
          ],
          [
            9.4659231,
            41.242269
          ],
          [
            9.465946,
            41.2422561
          ],
          [
            9.4659518,
            41.2422308
          ],
          [
            9.465979,
            41.2422233
          ],
          [
            9.4659875,
            41.2422098
          ],
          [
            9.4660877,
            41.2421415
          ],
          [
            9.4661121,
            41.242134
          ],
          [
            9.4661563,
            41.2421431
          ],
          [
            9.4661908,
            41.2421329
          ],
          [
            9.4661951,
            41.2421011
          ],
          [
            9.4661922,
            41.2420769
          ],
          [
            9.4662316,
            41.2420231
          ],
          [
            9.4662736,
            41.2420081
          ],
          [
            9.4662789,
            41.2419467
          ],
          [
            9.4663225,
            41.2419187
          ],
          [
            9.4663347,
            41.241867
          ],
          [
            9.4663932,
            41.2418214
          ],
          [
            9.4663869,
            41.2417771
          ],
          [
            9.466374,
            41.2417492
          ],
          [
            9.4663833,
            41.2416953
          ],
          [
            9.4664051,
            41.2416494
          ],
          [
            9.4664127,
            41.2416146
          ],
          [
            9.4664893,
            41.2415926
          ],
          [
            9.4665462,
            41.24156
          ],
          [
            9.4665709,
            41.2415554
          ],
          [
            9.4666374,
            41.2415796
          ],
          [
            9.4667693,
            41.2415869
          ],
          [
            9.4669245,
            41.2415234
          ],
          [
            9.4673084,
            41.2414891
          ],
          [
            9.467341,
            41.2415038
          ],
          [
            9.4673718,
            41.2415307
          ],
          [
            9.4674502,
            41.2416509
          ],
          [
            9.4674648,
            41.2417023
          ],
          [
            9.4675078,
            41.2417373
          ],
          [
            9.4675904,
            41.2418005
          ],
          [
            9.4677418,
            41.2418396
          ],
          [
            9.4681776,
            41.2420091
          ],
          [
            9.4682634,
            41.242085
          ],
          [
            9.468358,
            41.2420635
          ],
          [
            9.4684761,
            41.2421076
          ],
          [
            9.4686121,
            41.2421334
          ],
          [
            9.4687947,
            41.2422415
          ],
          [
            9.468922,
            41.2423724
          ]
        ]
      },
      "id": "relation/13491352"
    },
    {
      "type": "Feature",
      "properties": {
        "@id": "relation/13491353",
        "name": "Percorso 15",
        "network": "lwn",
        "route": "hiking",
        "type": "route"
      },
      "geometry": {
        "type": "LineString",
        "coordinates": [
          [
            9.472958,
            41.2298959
          ],
          [
            9.472882,
            41.2300216
          ],
          [
            9.4727909,
            41.2300559
          ],
          [
            9.4726541,
            41.2300788
          ],
          [
            9.4723882,
            41.2304788
          ],
          [
            9.4724185,
            41.2306616
          ],
          [
            9.472335,
            41.2307416
          ],
          [
            9.4722362,
            41.2307816
          ],
          [
            9.4720386,
            41.2310502
          ],
          [
            9.4718411,
            41.2311816
          ],
          [
            9.4712104,
            41.2314445
          ],
          [
            9.4705114,
            41.2316331
          ],
          [
            9.470367,
            41.2316788
          ],
          [
            9.4702303,
            41.2318502
          ],
          [
            9.4701315,
            41.2319702
          ],
          [
            9.4700175,
            41.2322959
          ],
          [
            9.4699567,
            41.2326559
          ],
          [
            9.4699871,
            41.2328616
          ],
          [
            9.4698428,
            41.2329702
          ],
          [
            9.4697136,
            41.2332387
          ],
          [
            9.4695768,
            41.2333244
          ],
          [
            9.4695768,
            41.2334844
          ],
          [
            9.4693945,
            41.2336901
          ],
          [
            9.4693337,
            41.2338959
          ],
          [
            9.4692273,
            41.2343187
          ],
          [
            9.4691893,
            41.2348844
          ],
          [
            9.4690981,
            41.2353701
          ],
          [
            9.4690222,
            41.2360671
          ],
          [
            9.4689234,
            41.23629
          ],
          [
            9.4689234,
            41.2364614
          ],
          [
            9.4690374,
            41.2366328
          ],
          [
            9.4690981,
            41.2367528
          ],
          [
            9.469045,
            41.2368785
          ],
          [
            9.4689842,
            41.2370328
          ],
          [
            9.4689918,
            41.2371642
          ],
          [
            9.4687182,
            41.2372899
          ],
          [
            9.4684903,
            41.2374213
          ],
          [
            9.4683995,
            41.2376293
          ],
          [
            9.4684827,
            41.2377813
          ],
          [
            9.468703,
            41.237947
          ],
          [
            9.468893,
            41.2380555
          ],
          [
            9.4690736,
            41.2381023
          ],
          [
            9.4691152,
            41.2382295
          ],
          [
            9.4689741,
            41.2385141
          ],
          [
            9.468762,
            41.2384314
          ],
          [
            9.4685038,
            41.2383384
          ],
          [
            9.4682313,
            41.2382981
          ],
          [
            9.4680037,
            41.2382528
          ],
          [
            9.4677721,
            41.2382863
          ],
          [
            9.4674601,
            41.2382994
          ],
          [
            9.4673746,
            41.2382649
          ],
          [
            9.467215,
            41.2382976
          ],
          [
            9.4671427,
            41.2383435
          ],
          [
            9.4670854,
            41.2384433
          ],
          [
            9.4669353,
            41.2384991
          ],
          [
            9.4668272,
            41.2384324
          ],
          [
            9.4666448,
            41.238385
          ],
          [
            9.4663471,
            41.2383406
          ],
          [
            9.4658209,
            41.2380311
          ],
          [
            9.4654593,
            41.2380572
          ],
          [
            9.4652031,
            41.2380078
          ],
          [
            9.4650124,
            41.2380056
          ],
          [
            9.4647721,
            41.2380087
          ],
          [
            9.4645661,
            41.2377993
          ],
          [
            9.4640781,
            41.2378897
          ],
          [
            9.4638419,
            41.2377916
          ],
          [
            9.4636929,
            41.2377913
          ],
          [
            9.4635226,
            41.2376944
          ],
          [
            9.4631558,
            41.2376351
          ]
        ]
      },
      "id": "relation/13491353"
    },
    {
      "type": "Feature",
      "properties": {
        "@id": "relation/13491354",
        "name": "Percorso 16",
        "network": "lwn",
        "route": "hiking",
        "type": "route"
      },
      "geometry": {
        "type": "LineString",
        "coordinates": [
          [
            9.458926,
            41.2227006
          ],
          [
            9.4590713,
            41.2227914
          ],
          [
            9.4591706,
            41.2227828
          ],
          [
            9.4592908,
            41.2227874
          ],
          [
            9.4593961,
            41.222855
          ],
          [
            9.4595007,
            41.2228275
          ],
          [
            9.4597067,
            41.2227785
          ],
          [
            9.4599435,
            41.2228286
          ],
          [
            9.460108,
            41.2228954
          ],
          [
            9.4602165,
            41.2230562
          ],
          [
            9.4602867,
            41.223179
          ],
          [
            9.460314,
            41.223255
          ],
          [
            9.4602738,
            41.2235063
          ],
          [
            9.4606723,
            41.2235468
          ],
          [
            9.4606334,
            41.2236755
          ],
          [
            9.4605556,
            41.2238306
          ],
          [
            9.4604544,
            41.2239506
          ],
          [
            9.4603105,
            41.2241408
          ],
          [
            9.4602016,
            41.2243046
          ],
          [
            9.4601782,
            41.2244568
          ],
          [
            9.4602405,
            41.224565
          ],
          [
            9.4603222,
            41.2247932
          ],
          [
            9.4603689,
            41.2249922
          ],
          [
            9.4603572,
            41.2251122
          ],
          [
            9.4604112,
            41.2251544
          ],
          [
            9.4604583,
            41.2251912
          ],
          [
            9.4604467,
            41.2253082
          ],
          [
            9.4603611,
            41.225437
          ],
          [
            9.46033,
            41.2256125
          ],
          [
            9.4603144,
            41.2257413
          ],
          [
            9.4602171,
            41.2258144
          ],
          [
            9.4601705,
            41.2259666
          ],
          [
            9.460116,
            41.2261948
          ],
          [
            9.4601316,
            41.2263294
          ],
          [
            9.4602288,
            41.226423
          ],
          [
            9.460365,
            41.2265488
          ],
          [
            9.4603416,
            41.2266395
          ],
          [
            9.4602738,
            41.226862
          ],
          [
            9.4603765,
            41.2270165
          ],
          [
            9.4603443,
            41.2271597
          ],
          [
            9.4602773,
            41.2272666
          ],
          [
            9.4602317,
            41.2273372
          ],
          [
            9.4602303,
            41.2273468
          ],
          [
            9.4603117,
            41.2274013
          ],
          [
            9.4603396,
            41.2274532
          ],
          [
            9.4604006,
            41.2274521
          ],
          [
            9.4606559,
            41.2275344
          ],
          [
            9.4608334,
            41.227681
          ],
          [
            9.4609757,
            41.2279508
          ],
          [
            9.4609927,
            41.2279721
          ],
          [
            9.4611216,
            41.2279685
          ],
          [
            9.46123,
            41.2280838
          ],
          [
            9.4613005,
            41.2280851
          ],
          [
            9.461379,
            41.2280876
          ],
          [
            9.4615356,
            41.2281218
          ],
          [
            9.4616244,
            41.2280841
          ],
          [
            9.461735,
            41.2281209
          ],
          [
            9.461843,
            41.2280962
          ],
          [
            9.4619321,
            41.228128
          ],
          [
            9.4621012,
            41.2280775
          ],
          [
            9.4622502,
            41.2280864
          ],
          [
            9.4625613,
            41.2280913
          ],
          [
            9.4627352,
            41.2281364
          ],
          [
            9.4628724,
            41.2284463
          ],
          [
            9.463123,
            41.2286105
          ],
          [
            9.4632674,
            41.2288787
          ],
          [
            9.4633678,
            41.2289389
          ],
          [
            9.4633866,
            41.2290337
          ],
          [
            9.4634147,
            41.2291934
          ],
          [
            9.4635938,
            41.2292264
          ],
          [
            9.4636659,
            41.2292856
          ],
          [
            9.4637004,
            41.2292995
          ],
          [
            9.4637125,
            41.2293398
          ],
          [
            9.463744,
            41.2293666
          ],
          [
            9.463744,
            41.2294301
          ],
          [
            9.4637639,
            41.2294902
          ],
          [
            9.4638044,
            41.2295083
          ],
          [
            9.4639056,
            41.2294921
          ],
          [
            9.4640082,
            41.2295007
          ],
          [
            9.4640491,
            41.2295476
          ],
          [
            9.4641299,
            41.2295676
          ],
          [
            9.464204,
            41.2296117
          ],
          [
            9.4642472,
            41.2296852
          ],
          [
            9.4643046,
            41.2297826
          ],
          [
            9.4643482,
            41.2298124
          ],
          [
            9.4644046,
            41.2298179
          ],
          [
            9.4647171,
            41.2298627
          ],
          [
            9.4648484,
            41.2298784
          ],
          [
            9.4649432,
            41.2298437
          ],
          [
            9.4650355,
            41.229822
          ],
          [
            9.46514,
            41.2298111
          ],
          [
            9.4652837,
            41.2296884
          ],
          [
            9.4653393,
            41.229657
          ],
          [
            9.4654597,
            41.2296319
          ],
          [
            9.4656534,
            41.2296001
          ],
          [
            9.4657503,
            41.2295833
          ]
        ]
      },
      "id": "relation/13491354"
    },
    {
      "type": "Feature",
      "properties": {
        "@id": "relation/13491355",
        "name": "Percorso Variante",
        "network": "lwn",
        "route": "hiking",
        "type": "route"
      },
      "geometry": {
        "type": "LineString",
        "coordinates": [
          [
            9.4613931,
            41.2445949
          ],
          [
            9.4615406,
            41.244492
          ],
          [
            9.4616318,
            41.2443892
          ],
          [
            9.4616425,
            41.244244
          ],
          [
            9.4616157,
            41.2440927
          ],
          [
            9.4617927,
            41.2439354
          ],
          [
            9.4620395,
            41.2437579
          ],
          [
            9.4621012,
            41.2436188
          ],
          [
            9.4622996,
            41.2435542
          ],
          [
            9.4624981,
            41.2436551
          ],
          [
            9.4627342,
            41.2436046
          ],
          [
            9.4628924,
            41.243532
          ],
          [
            9.4629943,
            41.243403
          ],
          [
            9.4632894,
            41.2432255
          ],
          [
            9.4633162,
            41.2430742
          ],
          [
            9.4634181,
            41.2428564
          ],
          [
            9.4637641,
            41.2428584
          ],
          [
            9.4640109,
            41.2430157
          ],
          [
            9.4641181,
            41.2428746
          ],
          [
            9.4644079,
            41.2426244
          ],
          [
            9.4644937,
            41.2424611
          ],
          [
            9.4644935,
            41.2423702
          ],
          [
            9.4645003,
            41.2423218
          ],
          [
            9.4645043,
            41.2422972
          ],
          [
            9.4645259,
            41.2422882
          ],
          [
            9.4643449,
            41.2422509
          ],
          [
            9.4643013,
            41.242212
          ],
          [
            9.4642448,
            41.2422222
          ],
          [
            9.4642032,
            41.2422039
          ],
          [
            9.4641312,
            41.2422136
          ],
          [
            9.4640171,
            41.2421512
          ],
          [
            9.463927,
            41.2421501
          ],
          [
            9.463883,
            41.2421001
          ],
          [
            9.4636702,
            41.2420863
          ],
          [
            9.46352,
            41.2421041
          ],
          [
            9.4633784,
            41.2419978
          ],
          [
            9.4632398,
            41.2418732
          ],
          [
            9.4629515,
            41.241725
          ],
          [
            9.4628656,
            41.2416029
          ],
          [
            9.462828,
            41.2415354
          ],
          [
            9.462824,
            41.241492
          ],
          [
            9.4628321,
            41.2414436
          ],
          [
            9.4626255,
            41.2413992
          ],
          [
            9.4625008,
            41.2413539
          ],
          [
            9.4624257,
            41.2413499
          ],
          [
            9.462415,
            41.2413105
          ],
          [
            9.4624673,
            41.2412167
          ],
          [
            9.4624982,
            41.2410987
          ],
          [
            9.462415,
            41.2408698
          ],
          [
            9.4625062,
            41.2405955
          ],
          [
            9.4629809,
            41.2403333
          ],
          [
            9.4630963,
            41.2401942
          ],
          [
            9.4630533,
            41.2399884
          ],
          [
            9.4629729,
            41.2397887
          ],
          [
            9.462643,
            41.2394862
          ],
          [
            9.4624364,
            41.2393612
          ],
          [
            9.4624096,
            41.2391918
          ],
          [
            9.4625518,
            41.2389558
          ],
          [
            9.4623131,
            41.2387863
          ],
          [
            9.4623291,
            41.2385786
          ],
          [
            9.4624472,
            41.2385019
          ],
          [
            9.4627744,
            41.2384697
          ],
          [
            9.4628312,
            41.2384764
          ],
          [
            9.463115,
            41.2385101
          ],
          [
            9.4633403,
            41.2384798
          ],
          [
            9.4634852,
            41.2384485
          ],
          [
            9.4637585,
            41.2384062
          ],
          [
            9.4639197,
            41.2382821
          ],
          [
            9.4639841,
            41.2380784
          ],
          [
            9.4640292,
            41.2379879
          ],
          [
            9.4640781,
            41.2378897
          ]
        ]
      },
      "id": "relation/13491355"
    }
  ]
}